{"type": "FeatureCollection", "features": [ {"type": "Feature", "properties": {"norad_id": 33867, "name": "IRIDIUM 33 DEB", "group": "iridium-33-debris", "lat": -53.634022677916334, "lon": 170.92293333746778, "alt_km": 330.2424009340675, "timestamp": "2025-12-20T14:38:02.354131+00:00", "meta": {"OBJECT_NAME": "IRIDIUM 33 DEB", "OBJECT_ID": "1997-051AL", "EPOCH": "2025-12-20T00:00:24.546240", "MEAN_MOTION": 15.83320916, "ECCENTRICITY": 0.00135723, "INCLINATION": 86.3644, "RA_OF_ASC_NODE": 346.2932, "ARG_OF_PERICENTER": 95.1198, "MEAN_ANOMALY": 265.1629, "EPHEMERIS_TYPE": 0, "CLASSIFICATION_TYPE": "U", "NORAD_CAT_ID": 33867, "ELEMENT_SET_NO": 999, "REV_AT_EPOCH": 89625, "BSTAR": 0.0064207293, "MEAN_MOTION_DOT": 0.01574163, "MEAN_MOTION_DDOT": 0}, "tle": {"line1": "1 33867U 97051AL  25354.00028410  .01574163  00000+0  64207-2 0  9990", "line2": "2 33867  86.3644 346.2932 0013572  95.1198 265.1629 15.83320916896259"}}, "geometry": {"type": "Point", "coordinates": [170.92293333746778, -53.634022677916334]}}, {"type": "Feature", "properties": {"norad_id": 33870, "name": "IRIDIUM 33 DEB", "group": "iridium-33-debris", "lat": -44.822202585787714, "lon": -121.49941759495589, "alt_km": 740.9918517542283, "timestamp": "2025-12-20T14:38:02.354141+00:00", "meta": {"OBJECT_NAME": "IRIDIUM 33 DEB", "OBJECT_ID": "1997-051AP", "EPOCH": "2025-12-20T03:53:26.545056", "MEAN_MOTION": 14.45886051, "ECCENTRICITY": 0.00222495, "INCLINATION": 86.3743, "RA_OF_ASC_NODE": 55.0796, "ARG_OF_PERICENTER": 154.3397, "MEAN_ANOMALY": 261.7164, "EPHEMERIS_TYPE": 0, "CLASSIFICATION_TYPE": "U", "NORAD_CAT_ID": 33870, "ELEMENT_SET_NO": 999, "REV_AT_EPOCH": 88244, "BSTAR": 0.00046884783, "MEAN_MOTION_DOT": 1.69e-05, "MEAN_MOTION_DDOT": 0}, "tle": {"line1": "1 33870U 97051AP  25354.16211279  .00001690  00000+0  46885-3 0  9990", "line2": "2 33870  86.3743  55.0796 0022249 154.3397 261.7164 14.45886051882442"}}, "geometry": {"type": "Point", "coordinates": [-121.49941759495589, -44.822202585787714]}}, {"type": "Feature", "properties": {"norad_id": 33881, "name": "IRIDIUM 33 DEB", "group": "iridium-33-debris", "lat": 36.82419295841339, "lon": 106.03394446458522, "alt_km": 717.4031265003787, "timestamp": "2025-12-20T14:38:02.354152+00:00", "meta": {"OBJECT_NAME": "IRIDIUM 33 DEB", "OBJECT_ID": "1997-051BA", "EPOCH": "2025-12-18T18:38:37.341312", "MEAN_MOTION": 14.56678227, "ECCENTRICITY": 0.00614608, "INCLINATION": 86.3861, "RA_OF_ASC_NODE": 104.1184, "ARG_OF_PERICENTER": 155.2089, "MEAN_ANOMALY": 356.6087, "EPHEMERIS_TYPE": 0, "CLASSIFICATION_TYPE": "U", "NORAD_CAT_ID": 33881, "ELEMENT_SET_NO": 999, "REV_AT_EPOCH": 87588, "BSTAR": 0.0015458281, "MEAN_MOTION_DOT": 7.103e-05, "MEAN_MOTION_DDOT": 0}, "tle": {"line1": "1 33881U 97051BA  25352.77682108  .00007103  00000+0  15458-2 0  9996", "line2": "2 33881  86.3861 104.1184 0061460 155.2089 356.6087 14.56678227875882"}}, "geometry": {"type": "Point", "coordinates": [106.03394446458522, 36.82419295841339]}}, {"type": "Feature", "properties": {"norad_id": 33884, "name": "IRIDIUM 33 DEB", "group": "iridium-33-debris", "lat": -34.39079484332124, "lon": -171.2433183149084, "alt_km": 642.1060462677406, "timestamp": "2025-12-20T14:38:02.354162+00:00", "meta": {"OBJECT_NAME": "IRIDIUM 33 DEB", "OBJECT_ID": "1997-051BD", "EPOCH": "2025-12-20T00:47:16.843776", "MEAN_MOTION": 14.77561987, "ECCENTRICITY": 0.00091842, "INCLINATION": 86.369, "RA_OF_ASC_NODE": 6.526, "ARG_OF_PERICENTER": 295.3474, "MEAN_ANOMALY": 92.3856, "EPHEMERIS_TYPE": 0, "CLASSIFICATION_TYPE": "U", "NORAD_CAT_ID": 33884, "ELEMENT_SET_NO": 999, "REV_AT_EPOCH": 88955, "BSTAR": 0.00092659392, "MEAN_MOTION_DOT": 6.644e-05, "MEAN_MOTION_DDOT": 0}, "tle": {"line1": "1 33884U 97051BD  25354.03283384  .00006644  00000+0  92659-3 0  9991", "line2": "2 33884  86.3690   6.5260 0009184 295.3474  92.3856 14.77561987889558"}}, "geometry": {"type": "Point", "coordinates": [-171.2433183149084, -34.39079484332124]}}, {"type": "Feature", "properties": {"norad_id": 33886, "name": "IRIDIUM 33 DEB", "group": "iridium-33-debris", "lat": 47.32774964466166, "lon": 67.85129719868318, "alt_km": 776.4094717153648, "timestamp": "2025-12-20T14:38:02.354173+00:00", "meta": {"OBJECT_NAME": "IRIDIUM 33 DEB", "OBJECT_ID": "1997-051BF", "EPOCH": "2025-12-20T04:30:59.629824", "MEAN_MOTION": 14.36060026, "ECCENTRICITY": 0.00129406, "INCLINATION": 86.3824, "RA_OF_ASC_NODE": 64.0937, "ARG_OF_PERICENTER": 214.8028, "MEAN_ANOMALY": 174.7554, "EPHEMERIS_TYPE": 0, "CLASSIFICATION_TYPE": "U", "NORAD_CAT_ID": 33886, "ELEMENT_SET_NO": 999, "REV_AT_EPOCH": 88159, "BSTAR": 0.00013722788, "MEAN_MOTION_DOT": 4.19e-06, "MEAN_MOTION_DDOT": 0}, "tle": {"line1": "1 33886U 97051BF  25354.18819016  .00000419  00000+0  13723-3 0  9995", "line2": "2 33886  86.3824  64.0937 0012940 214.8028 174.7554 14.36060026881593"}}, "geometry": {"type": "Point", "coordinates": [67.85129719868318, 47.32774964466166]}}, {"type": "Feature", "properties": {"norad_id": 33887, "name": "IRIDIUM 33 DEB", "group": "iridium-33-debris", "lat": 16.729017815681654, "lon": 1.113775253488133, "alt_km": 772.0327685716793, "timestamp": "2025-12-20T14:38:02.354184+00:00", "meta": {"OBJECT_NAME": "IRIDIUM 33 DEB", "OBJECT_ID": "1997-051BG", "EPOCH": "2025-12-20T01:28:45.668352", "MEAN_MOTION": 14.37227129, "ECCENTRICITY": 0.00051987, "INCLINATION": 86.3041, "RA_OF_ASC_NODE": 0.2367, "ARG_OF_PERICENTER": 196.9799, "MEAN_ANOMALY": 225.7634, "EPHEMERIS_TYPE": 0, "CLASSIFICATION_TYPE": "U", "NORAD_CAT_ID": 33887, "ELEMENT_SET_NO": 999, "REV_AT_EPOCH": 88270, "BSTAR": 0.00010697181, "MEAN_MOTION_DOT": 3.38e-06, "MEAN_MOTION_DDOT": 0}, "tle": {"line1": "1 33887U 97051BG  25354.06163968  .00000338  00000+0  10697-3 0  9998", "line2": "2 33887  86.3041   0.2367 0005198 196.9799 225.7634 14.37227129882706"}}, "geometry": {"type": "Point", "coordinates": [1.113775253488133, 16.729017815681654]}}, {"type": "Feature", "properties": {"norad_id": 33953, "name": "IRIDIUM 33 DEB", "group": "iridium-33-debris", "lat": 25.195378919475147, "lon": 52.068662389636174, "alt_km": 699.8107381030759, "timestamp": "2025-12-20T14:38:02.354194+00:00", "meta": {"OBJECT_NAME": "IRIDIUM 33 DEB", "OBJECT_ID": "1997-051BN", "EPOCH": "2025-12-20T03:06:09.003168", "MEAN_MOTION": 14.55388304, "ECCENTRICITY": 0.00179538, "INCLINATION": 86.3841, "RA_OF_ASC_NODE": 50.5724, "ARG_OF_PERICENTER": 80.2831, "MEAN_ANOMALY": 309.4365, "EPHEMERIS_TYPE": 0, "CLASSIFICATION_TYPE": "U", "NORAD_CAT_ID": 33953, "ELEMENT_SET_NO": 999, "REV_AT_EPOCH": 88411, "BSTAR": 0.00068975836, "MEAN_MOTION_DOT": 3.021e-05, "MEAN_MOTION_DDOT": 0}, "tle": {"line1": "1 33953U 97051BN  25354.12927087  .00003021  00000+0  68976-3 0  9994", "line2": "2 33953  86.3841  50.5724 0017953  80.2831 309.4365 14.55388304884118"}}, "geometry": {"type": "Point", "coordinates": [52.068662389636174, 25.195378919475147]}}, {"type": "Feature", "properties": {"norad_id": 33960, "name": "IRIDIUM 33 DEB", "group": "iridium-33-debris", "lat": -40.74402949773904, "lon": -77.43308587551229, "alt_km": 618.2031436711113, "timestamp": "2025-12-20T14:38:02.354206+00:00", "meta": {"OBJECT_NAME": "IRIDIUM 33 DEB", "OBJECT_ID": "1997-051BV", "EPOCH": "2025-12-18T21:04:17.238720", "MEAN_MOTION": 14.85489781, "ECCENTRICITY": 0.00074649, "INCLINATION": 86.254, "RA_OF_ASC_NODE": 286.6192, "ARG_OF_PERICENTER": 52.1098, "MEAN_ANOMALY": 12.0352, "EPHEMERIS_TYPE": 0, "CLASSIFICATION_TYPE": "U", "NORAD_CAT_ID": 33960, "ELEMENT_SET_NO": 999, "REV_AT_EPOCH": 88958, "BSTAR": 0.0022083229, "MEAN_MOTION_DOT": 0.0001912, "MEAN_MOTION_DDOT": 0}, "tle": {"line1": "1 33960U 97051BV  25352.87797730  .00019120  00000+0  22083-2 0  9997", "line2": "2 33960  86.2540 286.6192 0007464  52.1098  12.0352 14.85489781889584"}}, "geometry": {"type": "Point", "coordinates": [-77.43308587551229, -40.74402949773904]}}, {"type": "Feature", "properties": {"norad_id": 33966, "name": "IRIDIUM 33 DEB", "group": "iridium-33-debris", "lat": -11.319835496794981, "lon": 41.92594606830538, "alt_km": 737.142264987785, "timestamp": "2025-12-20T14:38:02.354216+00:00", "meta": {"OBJECT_NAME": "IRIDIUM 33 DEB", "OBJECT_ID": "1997-051CB", "EPOCH": "2025-12-20T03:11:01.812768", "MEAN_MOTION": 14.49620401, "ECCENTRICITY": 0.00082512, "INCLINATION": 86.3914, "RA_OF_ASC_NODE": 42.8545, "ARG_OF_PERICENTER": 164.7802, "MEAN_ANOMALY": 215.846, "EPHEMERIS_TYPE": 0, "CLASSIFICATION_TYPE": "U", "NORAD_CAT_ID": 33966, "ELEMENT_SET_NO": 999, "REV_AT_EPOCH": 88549, "BSTAR": 0.00034832746, "MEAN_MOTION_DOT": 1.358e-05, "MEAN_MOTION_DDOT": 0}, "tle": {"line1": "1 33966U 97051CB  25354.13265987  .00001358  00000+0  34833-3 0  9999", "line2": "2 33966  86.3914  42.8545 0008251 164.7802 215.8460 14.49620401885493"}}, "geometry": {"type": "Point", "coordinates": [41.92594606830538, -11.319835496794981]}}, {"type": "Feature", "properties": {"norad_id": 34071, "name": "IRIDIUM 33 DEB", "group": "iridium-33-debris", "lat": 51.290438770160335, "lon": 18.982319107076602, "alt_km": 716.8232270155559, "timestamp": "2025-12-20T14:38:02.354226+00:00", "meta": {"OBJECT_NAME": "IRIDIUM 33 DEB", "OBJECT_ID": "1997-051CE", "EPOCH": "2025-12-20T02:48:00.187776", "MEAN_MOTION": 14.49494127, "ECCENTRICITY": 0.00099446, "INCLINATION": 86.3449, "RA_OF_ASC_NODE": 14.6218, "ARG_OF_PERICENTER": 87.7011, "MEAN_ANOMALY": 272.5331, "EPHEMERIS_TYPE": 0, "CLASSIFICATION_TYPE": "U", "NORAD_CAT_ID": 34071, "ELEMENT_SET_NO": 999, "REV_AT_EPOCH": 88441, "BSTAR": 0.00040343634, "MEAN_MOTION_DOT": 1.566e-05, "MEAN_MOTION_DDOT": 0}, "tle": {"line1": "1 34071U 97051CE  25354.11666884  .00001566  00000+0  40344-3 0  9991", "line2": "2 34071  86.3449  14.6218 0009944  87.7011 272.5331 14.49494127884416"}}, "geometry": {"type": "Point", "coordinates": [18.982319107076602, 51.290438770160335]}}]}